{
  "norad_id": 40294,
  "name": "NAVSTAR 72 (USA 258)",
  "history": [
    {
      "epoch": "2026-03-27T15:47:42.451008",
      "apogee_km": 20351.22719733373,
      "perigee_km": 20011.821286324393,
      "latitude_deg": 11.077742155540966,
      "longitude_deg": -23.419498879928142,
      "semi_major_axis_km": 26559.66124182906,
      "eccentricity": 0.0063895,
      "inclination_deg": 56.9354,
      "raan_deg": 34.096,
      "arg_perigee_deg": 68.2397,
      "mean_anomaly_deg": 292.425,
      "mean_motion_rev_day": 2.00571381
    }
  ]
}